IRIDIUM 39              
1 25042U 97069D   25183.80241780  .00000407  00000+0  10129-3 0  9999
2 25042  86.3921 204.4392 0015576 252.6972 107.2528 14.49232194451481
IRIDIUM 38              
1 25043U 97069E   25183.82422467  .00000292  00000+0  89744-4 0  9997
2 25043  86.3954 226.5781 0003950  71.6755 288.4873 14.38126610448200
IRIDIUM 42              
1 25077U 97077A   25183.84962916  .00000234  00000+0  73356-4 0  9991
2 25077  86.3956 232.7559 0003010  85.6874 274.4667 14.36361233443442
IRIDIUM 44              
1 25078U 97077B   25183.62285669  .00000250  00000+0  72876-4 0  9995
2 25078  86.3962 214.7386 0002350  43.4468 316.6916 14.40250439445926
IRIDIUM 45              
1 25104U 97082A   25183.63215895  .00009194  00000+0  32777-3 0  9997
2 25104  86.3574  40.3894 0113222 273.8734  84.9572 15.22753123454391
IRIDIUM 24              
1 25105U 97082B   25183.71489404  .00000339  00000+0  97086-4 0  9993
2 25105  86.3893  73.7148 0012709  35.5033 324.7010 14.42110324445451
IRIDIUM 51              
1 25262U 98018A   25183.88481315  .00026342  00000+0  56972-3 0  9998
2 25262  86.3822  48.0544 0084754 188.0516 171.9385 15.40494634449449
IRIDIUM 57              
1 25273U 98019B   25183.85154032  .00000291  00000+0  93489-4 0  9991
2 25273  86.3983 138.7012 0002328  84.6866 275.4596 14.35901342427039
